[{"OBJECT_NAME":"ICEYE-X31","OBJECT_ID":"2023-174AJ","EPOCH":"2026-03-09T23:06:20.433600","MEAN_MOTION":15.30950809,"ECCENTRICITY":0.00015021,"INCLINATION":97.3851,"RA_OF_ASC_NODE":144.9524,"ARG_OF_PERICENTER":332.6589,"MEAN_ANOMALY":27.4572,"EPHEMERIS_TYPE":0,"CLASSIFICATION_TYPE":"U","NORAD_CAT_ID":58288,"ELEMENT_SET_NO":999,"REV_AT_EPOCH":12955,"BSTAR":0.00066288467,"MEAN_MOTION_DOT":0.00019777,"MEAN_MOTION_DDOT":0},{"OBJECT_NAME":"STARLINK-35628","OBJECT_ID":"2025-237K","EPOCH":"2026-03-09T07:13:13.880640","MEAN_MOTION":15.30231167,"ECCENTRICITY":0.00018839,"INCLINATION":53.1613,"RA_OF_ASC_NODE":41.2399,"ARG_OF_PERICENTER":72.1118,"MEAN_ANOMALY":288.0088,"EPHEMERIS_TYPE":0,"CLASSIFICATION_TYPE":"U","NORAD_CAT_ID":66123,"ELEMENT_SET_NO":999,"REV_AT_EPOCH":2255,"BSTAR":0.0008789481,"MEAN_MOTION_DOT":0.00025788,"MEAN_MOTION_DDOT":0}]
